start=new Date('2022-12-06T00:00:00.000Z').valueOf();
sats=[{"SEMIMAJOR_AXIS":"6925.330","ARG_OF_PERICENTER":"65.5457","MEAN_ANOMALY":"294.5730","OBJECT_ID":"2020-062AR","BSTAR":"0.00017807000000","MEAN_MOTION":"15.06405918","OBJECT_NAME":"STARLINK-1763","PERIAPSIS":"545.879","MEAN_MOTION_DDOT":"0.0000000000000","REF_FRAME":"TEME","PERIOD":"95.592","ECCENTRICITY":"0.00019010","MEAN_MOTION_DOT":"0.00002372","MEAN_ELEMENT_THEORY":"SGP4","NORAD_CAT_ID":"46364","CENTER_NAME":"EARTH","CLASSIFICATION_TYPE":"U","RA_OF_ASC_NODE":"255.0495","TLE_LINE2":"2 46364  53.0563 255.0495 0001901  65.5457 294.5730 15.06405918125827","DECAY_DATE":null,"INCLINATION":"53.0563","EPHEMERIS_TYPE":"0","APOAPSIS":"548.512","EPOCH":"2022-12-05T12:13:16.749696","TLE_LINE1":"1 46364U 20062AR  22339.50922164  .00002372  00000-0  17807-3 0  9991","REV_AT_EPOCH":"12582","COUNTRY_CODE":"US","OBJECT_TYPE":"PAYLOAD","GP_ID":"219592733","LAUNCH_DATE":"2020-09-03","RCS_SIZE":"LARGE","FILE":"3682099","TIME_SYSTEM":"UTC","SITE":"AFETR","ELEMENT_SET_NO":"999"},{"LAUNCH_DATE":"2020-09-03","RCS_SIZE":"LARGE","OBJECT_TYPE":"PAYLOAD","GP_ID":"219592985","TIME_SYSTEM":"UTC","ELEMENT_SET_NO":"999","SITE":"AFETR","FILE":"3682099","APOAPSIS":"548.583","DECAY_DATE":null,"EPHEMERIS_TYPE":"0","INCLINATION":"53.0567","COUNTRY_CODE":"US","TLE_LINE1":"1 46365U 20062AS  22339.21980589  .00002261  00000-0  17063-3 0  9996","REV_AT_EPOCH":"12550","EPOCH":"2022-12-05T05:16:31.228896","MEAN_MOTION_DOT":"0.00002261","MEAN_ELEMENT_THEORY":"SGP4","NORAD_CAT_ID":"46365","ECCENTRICITY":"0.00019630","RA_OF_ASC_NODE":"275.8492","TLE_LINE2":"2 46365  53.0567 275.8492 0001963  50.1565 309.9596 15.06396797125507","CENTER_NAME":"EARTH","CLASSIFICATION_TYPE":"U","ARG_OF_PERICENTER":"50.1565","MEAN_ANOMALY":"309.9596","SEMIMAJOR_AXIS":"6925.358","OBJECT_NAME":"STARLINK-1550","PERIAPSIS":"545.864","REF_FRAME":"TEME","MEAN_MOTION_DDOT":"0.0000000000000","PERIOD":"95.592","OBJECT_ID":"2020-062AS","BSTAR":"0.00017063000000","MEAN_MOTION":"15.06396797"},{"NORAD_CAT_ID":"46366","MEAN_ELEMENT_THEORY":"SGP4","MEAN_MOTION_DOT":"0.00001368","ECCENTRICITY":"0.00015630","TLE_LINE2":"2 46366  53.0560 275.9066 0001563  59.9156 300.1988 15.06401792125508","RA_OF_ASC_NODE":"275.9066","CLASSIFICATION_TYPE":"U","CENTER_NAME":"EARTH","MEAN_ANOMALY":"300.1988","ARG_OF_PERICENTER":"59.9156","SEMIMAJOR_AXIS":"6925.343","PERIOD":"95.592","MEAN_MOTION_DDOT":"0.0000000000000","REF_FRAME":"TEME","OBJECT_NAME":"STARLINK-1651","PERIAPSIS":"546.126","MEAN_MOTION":"15.06401792","BSTAR":"0.00011073000000","OBJECT_ID":"2020-062AT","RCS_SIZE":"LARGE","LAUNCH_DATE":"2020-09-03","GP_ID":"219593228","OBJECT_TYPE":"PAYLOAD","ELEMENT_SET_NO":"999","SITE":"AFETR","TIME_SYSTEM":"UTC","FILE":"3682099","APOAPSIS":"548.290","EPHEMERIS_TYPE":"0","INCLINATION":"53.0560","DECAY_DATE":null,"COUNTRY_CODE":"US","TLE_LINE1":"1 46366U 20062AT  22339.20875023  .00001368  00000-0  11073-3 0  9994","REV_AT_EPOCH":"12550","EPOCH":"2022-12-05T05:00:36.019872"},{"INCLINATION":"53.0561","EPHEMERIS_TYPE":"0","DECAY_DATE":null,"APOAPSIS":"548.389","EPOCH":"2022-12-05T14:31:48.910944","TLE_LINE1":"1 46368U 20062AV  22339.60542721  .00001725  00000-0  13469-3 0  9994","REV_AT_EPOCH":"12540","COUNTRY_CODE":"US","GP_ID":"219599511","OBJECT_TYPE":"PAYLOAD","RCS_SIZE":"LARGE","LAUNCH_DATE":"2020-09-03","FILE":"3682175","ELEMENT_SET_NO":"999","SITE":"AFETR","TIME_SYSTEM":"UTC","SEMIMAJOR_AXIS":"6925.357","MEAN_ANOMALY":"298.1525","ARG_OF_PERICENTER":"61.9634","MEAN_MOTION":"15.06397295","BSTAR":"0.00013469000000","OBJECT_ID":"2020-062AV","PERIOD":"95.592","REF_FRAME":"TEME","MEAN_MOTION_DDOT":"0.0000000000000","OBJECT_NAME":"STARLINK-1658","PERIAPSIS":"546.055","ECCENTRICITY":"0.00016850","NORAD_CAT_ID":"46368","MEAN_MOTION_DOT":"0.00001725","MEAN_ELEMENT_THEORY":"SGP4","CLASSIFICATION_TYPE":"U","CENTER_NAME":"EARTH","TLE_LINE2":"2 46368  53.0561 299.0932 0001685  61.9634 298.1525 15.06397295125403","RA_OF_ASC_NODE":"299.0932"},{"SEMIMAJOR_AXIS":"6925.333","MEAN_ANOMALY":"308.4836","ARG_OF_PERICENTER":"51.6330","BSTAR":"0.00007190000000","MEAN_MOTION":"15.06405175","OBJECT_ID":"2020-062AX","PERIOD":"95.592","PERIAPSIS":"545.836","OBJECT_NAME":"STARLINK-1670","MEAN_MOTION_DDOT":"0.0000000000000","REF_FRAME":"TEME","ECCENTRICITY":"0.00019660","NORAD_CAT_ID":"46370","MEAN_ELEMENT_THEORY":"SGP4","MEAN_MOTION_DOT":"0.00000790","CENTER_NAME":"EARTH","CLASSIFICATION_TYPE":"U","RA_OF_ASC_NODE":"300.4652","TLE_LINE2":"2 46370  53.0564 300.4652 0001966  51.6330 308.4836 15.06405175125177","DECAY_DATE":null,"EPHEMERIS_TYPE":"0","INCLINATION":"53.0564","APOAPSIS":"548.559","EPOCH":"2022-12-05T07:17:55.862592","TLE_LINE1":"1 46370U 20062AX  22339.30411878  .00000790  00000-0  71900-4 0  9998","COUNTRY_CODE":"US","REV_AT_EPOCH":"12517","GP_ID":"219593728","OBJECT_TYPE":"PAYLOAD","LAUNCH_DATE":"2020-09-03","RCS_SIZE":"LARGE","FILE":"3682099","SITE":"AFETR","ELEMENT_SET_NO":"999","TIME_SYSTEM":"UTC"},{"ARG_OF_PERICENTER":"70.6070","MEAN_ANOMALY":"289.5118","SEMIMAJOR_AXIS":"6925.329","REF_FRAME":"TEME","MEAN_MOTION_DDOT":"0.0000000000000","OBJECT_NAME":"STARLINK-1688","PERIAPSIS":"545.917","PERIOD":"95.592","OBJECT_ID":"2020-062AY","MEAN_MOTION":"15.06406411","BSTAR":"0.00013927000000","MEAN_MOTION_DOT":"0.00001794","MEAN_ELEMENT_THEORY":"SGP4","NORAD_CAT_ID":"46371","ECCENTRICITY":"0.00018440","TLE_LINE2":"2 46371  53.0568 297.8345 0001844  70.6070 289.5118 15.06406411125263","RA_OF_ASC_NODE":"297.8345","CLASSIFICATION_TYPE":"U","CENTER_NAME":"EARTH","APOAPSIS":"548.471","EPHEMERIS_TYPE":"0","INCLINATION":"53.0568","DECAY_DATE":null,"TLE_LINE1":"1 46371U 20062AY  22339.89386939  .00001794  00000-0  13927-3 0  9991","REV_AT_EPOCH":"12526","COUNTRY_CODE":"US","EPOCH":"2022-12-05T21:27:10.315296","RCS_SIZE":"LARGE","LAUNCH_DATE":"2020-09-03","OBJECT_TYPE":"PAYLOAD","GP_ID":"219623128","TIME_SYSTEM":"UTC","ELEMENT_SET_NO":"999","SITE":"AFETR","FILE":"3682465"},{"FILE":"3682197","SITE":"AFETR","ELEMENT_SET_NO":"999","TIME_SYSTEM":"UTC","GP_ID":"219599305","OBJECT_TYPE":"PAYLOAD","LAUNCH_DATE":"2020-09-03","RCS_SIZE":"LARGE","EPOCH":"2022-12-05T15:18:17.555616","TLE_LINE1":"1 46372U 20062AZ  22339.63770319  .00000959  00000-0  83279-4 0  9993","COUNTRY_CODE":"US","REV_AT_EPOCH":"12512","DECAY_DATE":null,"EPHEMERIS_TYPE":"0","INCLINATION":"53.0577","APOAPSIS":"548.728","CENTER_NAME":"EARTH","CLASSIFICATION_TYPE":"U","RA_OF_ASC_NODE":"318.9652","TLE_LINE2":"2 46372  53.0577 318.9652 0002161  56.9026 303.2170 15.06394294125123","ECCENTRICITY":"0.00021610","NORAD_CAT_ID":"46372","MEAN_MOTION_DOT":"0.00000959","MEAN_ELEMENT_THEORY":"SGP4","BSTAR":"0.00008327900000","MEAN_MOTION":"15.06394294","OBJECT_ID":"2020-062AZ","PERIOD":"95.593","PERIAPSIS":"545.734","OBJECT_NAME":"STARLINK-1689","MEAN_MOTION_DDOT":"0.0000000000000","REF_FRAME":"TEME","SEMIMAJOR_AXIS":"6925.366","MEAN_ANOMALY":"303.2170","ARG_OF_PERICENTER":"56.9026"},{"OBJECT_ID":"2020-062BB","MEAN_MOTION":"15.06643893","BSTAR":"0.00210800000000","MEAN_MOTION_DDOT":"0.0000000000000","REF_FRAME":"TEME","PERIAPSIS":"545.421","OBJECT_NAME":"STARLINK-1711","PERIOD":"95.577","SEMIMAJOR_AXIS":"6924.601","ARG_OF_PERICENTER":"82.3422","MEAN_ANOMALY":"277.7738","CLASSIFICATION_TYPE":"U","CENTER_NAME":"EARTH","TLE_LINE2":"2 46374  53.0548 248.3095 0001510  82.3422 277.7738 15.06643893125947","RA_OF_ASC_NODE":"248.3095","ECCENTRICITY":"0.00015100","MEAN_ELEMENT_THEORY":"SGP4","MEAN_MOTION_DOT":"0.00031466","NORAD_CAT_ID":"46374","EPOCH":"2022-12-05T18:48:49.198464","TLE_LINE1":"1 46374U 20062BB  22339.78390276  .00031466  00000-0  21080-2 0  9998","REV_AT_EPOCH":"12594","COUNTRY_CODE":"US","EPHEMERIS_TYPE":"0","INCLINATION":"53.0548","DECAY_DATE":null,"APOAPSIS":"547.512","FILE":"3682465","TIME_SYSTEM":"UTC","SITE":"AFETR","ELEMENT_SET_NO":"999","OBJECT_TYPE":"PAYLOAD","GP_ID":"219624124","RCS_SIZE":"LARGE","LAUNCH_DATE":"2020-09-03"},{"EPHEMERIS_TYPE":"0","INCLINATION":"53.0553","DECAY_DATE":null,"APOAPSIS":"548.516","EPOCH":"2022-12-05T12:47:41.175744","REV_AT_EPOCH":"12573","TLE_LINE1":"1 46375U 20062BC  22339.53311546  .00002116  00000-0  16094-3 0  9995","COUNTRY_CODE":"US","OBJECT_TYPE":"PAYLOAD","GP_ID":"219599864","RCS_SIZE":"LARGE","LAUNCH_DATE":"2020-09-03","FILE":"3682206","TIME_SYSTEM":"UTC","ELEMENT_SET_NO":"999","SITE":"AFETR","SEMIMAJOR_AXIS":"6925.366","ARG_OF_PERICENTER":"56.4958","MEAN_ANOMALY":"303.6208","OBJECT_ID":"2020-062BC","MEAN_MOTION":"15.06394286","BSTAR":"0.00016094000000","MEAN_MOTION_DDOT":"0.0000000000000","REF_FRAME":"TEME","OBJECT_NAME":"STARLINK-1724","PERIAPSIS":"545.946","PERIOD":"95.593","ECCENTRICITY":"0.00018550","MEAN_MOTION_DOT":"0.00002116","MEAN_ELEMENT_THEORY":"SGP4","NORAD_CAT_ID":"46375","CLASSIFICATION_TYPE":"U","CENTER_NAME":"EARTH","TLE_LINE2":"2 46375  53.0553 274.4299 0001855  56.4958 303.6208 15.06394286125735","RA_OF_ASC_NODE":"274.4299"},{"APOAPSIS":"548.515","INCLINATION":"53.0564","EPHEMERIS_TYPE":"0","DECAY_DATE":null,"TLE_LINE1":"1 46376U 20062BD  22339.81322950 -.00001456  00000-0 -78786-4 0  9993","REV_AT_EPOCH":"12559","COUNTRY_CODE":"US","EPOCH":"2022-12-05T19:31:03.028800","RCS_SIZE":"LARGE","LAUNCH_DATE":"2020-09-03","OBJECT_TYPE":"PAYLOAD","GP_ID":"219623628","TIME_SYSTEM":"UTC","ELEMENT_SET_NO":"999","SITE":"AFETR","FILE":"3682465","ARG_OF_PERICENTER":"68.1890","MEAN_ANOMALY":"291.9309","SEMIMAJOR_AXIS":"6925.286","MEAN_MOTION_DDOT":"0.0000000000000","REF_FRAME":"TEME","PERIAPSIS":"545.788","OBJECT_NAME":"STARLINK-1742","PERIOD":"95.591","OBJECT_ID":"2020-062BD","MEAN_MOTION":"15.06420261","BSTAR":"-0.00007878600000","MEAN_MOTION_DOT":"-0.00001456","MEAN_ELEMENT_THEORY":"SGP4","NORAD_CAT_ID":"46376","ECCENTRICITY":"0.00019690","TLE_LINE2":"2 46376  53.0564 273.1887 0001969  68.1890 291.9309 15.06420261125596","RA_OF_ASC_NODE":"273.1887","CLASSIFICATION_TYPE":"U","CENTER_NAME":"EARTH"}];
